start=new Date('2023-06-30T00:00:00.000Z').valueOf();
sats=[{"FILE":"3945658","MEAN_MOTION_DDOT":"0.0000000000000","ARG_OF_PERICENTER":"90.2779","TIME_SYSTEM":"UTC","OBJECT_TYPE":"PAYLOAD","PERIOD":"95.592","GP_ID":"234622450","BSTAR":"0.00006416000000","CLASSIFICATION_TYPE":"U","APOAPSIS":"547.973","NORAD_CAT_ID":"48328","REV_AT_EPOCH":"12027","ECCENTRICITY":"0.00010820","MEAN_MOTION_DOT":"0.00000674","INCLINATION":"53.0530","SEMIMAJOR_AXIS":"6925.358","COUNTRY_CODE":"US","EPHEMERIS_TYPE":"0","LAUNCH_DATE":"2021-04-29","RA_OF_ASC_NODE":"200.1166","ELEMENT_SET_NO":"999","OBJECT_ID":"2021-036BE","EPOCH":"2023-06-29T10:21:23.505120","TLE_LINE1":"1 48328U 21036BE  23180.43152205  .00000674  00000-0  64160-4 0  9991","REF_FRAME":"TEME","CENTER_NAME":"EARTH","SITE":"AFETR","TLE_LINE2":"2 48328  53.0530 200.1166 0001082  90.2779 269.8334 15.06396857120271","MEAN_ELEMENT_THEORY":"SGP4","RCS_SIZE":"LARGE","OBJECT_NAME":"STARLINK-2504","MEAN_ANOMALY":"269.8334","PERIAPSIS":"546.474","MEAN_MOTION":"15.06396857","DECAY_DATE":null},{"DECAY_DATE":null,"MEAN_MOTION":"15.06400851","TLE_LINE2":"2 48329  53.0529 201.3291 0001040  93.4461 266.6647 15.06400851120237","SITE":"AFETR","RCS_SIZE":"LARGE","MEAN_ELEMENT_THEORY":"SGP4","MEAN_ANOMALY":"266.6647","PERIAPSIS":"546.491","OBJECT_NAME":"STARLINK-2510","TLE_LINE1":"1 48329U 21036BF  23180.16338819  .00001088  00000-0  91903-4 0  9994","EPOCH":"2023-06-29T03:55:16.739616","REF_FRAME":"TEME","CENTER_NAME":"EARTH","COUNTRY_CODE":"US","LAUNCH_DATE":"2021-04-29","RA_OF_ASC_NODE":"201.3291","EPHEMERIS_TYPE":"0","ELEMENT_SET_NO":"999","OBJECT_ID":"2021-036BF","APOAPSIS":"547.931","REV_AT_EPOCH":"12023","NORAD_CAT_ID":"48329","MEAN_MOTION_DOT":"0.00001088","INCLINATION":"53.0529","ECCENTRICITY":"0.00010400","SEMIMAJOR_AXIS":"6925.346","GP_ID":"234616314","BSTAR":"0.00009190300000","CLASSIFICATION_TYPE":"U","ARG_OF_PERICENTER":"93.4461","OBJECT_TYPE":"PAYLOAD","TIME_SYSTEM":"UTC","PERIOD":"95.592","MEAN_MOTION_DDOT":"0.0000000000000","FILE":"3945386"},{"APOAPSIS":"547.942","NORAD_CAT_ID":"48330","REV_AT_EPOCH":"12023","ECCENTRICITY":"0.00010590","MEAN_MOTION_DOT":"0.00000989","INCLINATION":"53.0523","SEMIMAJOR_AXIS":"6925.344","GP_ID":"234617909","BSTAR":"0.00008529400000","CLASSIFICATION_TYPE":"U","ARG_OF_PERICENTER":"92.3809","OBJECT_TYPE":"PAYLOAD","TIME_SYSTEM":"UTC","PERIOD":"95.592","FILE":"3945473","MEAN_MOTION_DDOT":"0.0000000000000","MEAN_MOTION":"15.06401482","DECAY_DATE":null,"TLE_LINE2":"2 48330  53.0523 201.3429 0001059  92.3809 267.7301 15.06401482120230","SITE":"AFETR","MEAN_ELEMENT_THEORY":"SGP4","RCS_SIZE":"LARGE","OBJECT_NAME":"STARLINK-2501","MEAN_ANOMALY":"267.7301","PERIAPSIS":"546.476","EPOCH":"2023-06-29T03:49:58.330560","TLE_LINE1":"1 48330U 21036BG  23180.15970290  .00000989  00000-0  85294-4 0  9995","REF_FRAME":"TEME","CENTER_NAME":"EARTH","COUNTRY_CODE":"US","RA_OF_ASC_NODE":"201.3429","LAUNCH_DATE":"2021-04-29","EPHEMERIS_TYPE":"0","OBJECT_ID":"2021-036BG","ELEMENT_SET_NO":"999"},{"MEAN_MOTION":"15.06395062","DECAY_DATE":null,"MEAN_ELEMENT_THEORY":"SGP4","RCS_SIZE":"LARGE","TLE_LINE2":"2 48331  53.0522 201.3582 0000992  97.7413 262.3688 15.06395062120230","SITE":"AFETR","OBJECT_NAME":"STARLINK-2514","MEAN_ANOMALY":"262.3688","PERIAPSIS":"546.542","EPOCH":"2023-06-29T03:44:40.369920","TLE_LINE1":"1 48331U 21036BH  23180.15602280  .00000488  00000-0  51647-4 0  9996","CENTER_NAME":"EARTH","REF_FRAME":"TEME","COUNTRY_CODE":"US","OBJECT_ID":"2021-036BH","ELEMENT_SET_NO":"999","RA_OF_ASC_NODE":"201.3582","LAUNCH_DATE":"2021-04-29","EPHEMERIS_TYPE":"0","NORAD_CAT_ID":"48331","REV_AT_EPOCH":"12023","APOAPSIS":"547.916","SEMIMAJOR_AXIS":"6925.364","ECCENTRICITY":"0.00009920","MEAN_MOTION_DOT":"0.00000488","INCLINATION":"53.0522","BSTAR":"0.00005164700000","GP_ID":"234616425","CLASSIFICATION_TYPE":"U","TIME_SYSTEM":"UTC","OBJECT_TYPE":"PAYLOAD","ARG_OF_PERICENTER":"97.7413","PERIOD":"95.592","FILE":"3945393","MEAN_MOTION_DDOT":"0.0000000000000"},{"MEAN_ELEMENT_THEORY":"SGP4","RCS_SIZE":"LARGE","SITE":"AFETR","TLE_LINE2":"2 48332  53.0522 204.9408 0001039  70.8360 289.2742 15.06394734120114","OBJECT_NAME":"STARLINK-2511","MEAN_ANOMALY":"289.2742","PERIAPSIS":"546.510","MEAN_MOTION":"15.06394734","DECAY_DATE":null,"COUNTRY_CODE":"US","ELEMENT_SET_NO":"999","OBJECT_ID":"2021-036BJ","RA_OF_ASC_NODE":"204.9408","LAUNCH_DATE":"2021-04-29","EPHEMERIS_TYPE":"0","EPOCH":"2023-06-28T08:36:50.260320","TLE_LINE1":"1 48332U 21036BJ  23179.35891505  .00001259  00000-0  10341-3 0  9999","CENTER_NAME":"EARTH","REF_FRAME":"TEME","BSTAR":"0.00010341000000","GP_ID":"234603897","CLASSIFICATION_TYPE":"U","NORAD_CAT_ID":"48332","REV_AT_EPOCH":"12011","APOAPSIS":"547.949","SEMIMAJOR_AXIS":"6925.365","ECCENTRICITY":"0.00010390","MEAN_MOTION_DOT":"0.00001259","INCLINATION":"53.0522","FILE":"3944885","MEAN_MOTION_DDOT":"0.0000000000000","OBJECT_TYPE":"PAYLOAD","TIME_SYSTEM":"UTC","ARG_OF_PERICENTER":"70.8360","PERIOD":"95.592"},{"LAUNCH_DATE":"2021-04-29","RA_OF_ASC_NODE":"200.2035","EPHEMERIS_TYPE":"0","ELEMENT_SET_NO":"999","OBJECT_ID":"2021-036BK","COUNTRY_CODE":"US","REF_FRAME":"TEME","CENTER_NAME":"EARTH","EPOCH":"2023-06-29T09:56:12.514272","TLE_LINE1":"1 48333U 21036BK  23180.41403373  .00000452  00000-0  49257-4 0  9994","OBJECT_NAME":"STARLINK-2518","MEAN_ANOMALY":"275.4046","PERIAPSIS":"546.429","SITE":"AFETR","TLE_LINE2":"2 48333  53.0540 200.2035 0001123  84.7071 275.4046 15.06402124120271","MEAN_ELEMENT_THEORY":"SGP4","RCS_SIZE":"LARGE","MEAN_MOTION":"15.06402124","DECAY_DATE":null,"FILE":"3945665","MEAN_MOTION_DDOT":"0.0000000000000","PERIOD":"95.592","ARG_OF_PERICENTER":"84.7071","OBJECT_TYPE":"PAYLOAD","TIME_SYSTEM":"UTC","CLASSIFICATION_TYPE":"U","GP_ID":"234622567","BSTAR":"0.00004925700000","ECCENTRICITY":"0.00011230","MEAN_MOTION_DOT":"0.00000452","INCLINATION":"53.0540","SEMIMAJOR_AXIS":"6925.342","APOAPSIS":"547.985","NORAD_CAT_ID":"48333","REV_AT_EPOCH":"12027"},{"RCS_SIZE":"LARGE","MEAN_ELEMENT_THEORY":"SGP4","TLE_LINE2":"2 48334  53.0529 200.2217 0001342  85.7756 274.3386 15.06405791120273","SITE":"AFETR","PERIAPSIS":"546.266","MEAN_ANOMALY":"274.3386","OBJECT_NAME":"STARLINK-2470","DECAY_DATE":null,"MEAN_MOTION":"15.06405791","COUNTRY_CODE":"US","OBJECT_ID":"2021-036BL","ELEMENT_SET_NO":"999","LAUNCH_DATE":"2021-04-29","EPHEMERIS_TYPE":"0","RA_OF_ASC_NODE":"200.2217","TLE_LINE1":"1 48334U 21036BL  23180.41034694  .00001904  00000-0  14664-3 0  9997","EPOCH":"2023-06-29T09:50:53.975616","CENTER_NAME":"EARTH","REF_FRAME":"TEME","BSTAR":"0.00014664000000","GP_ID":"234622579","CLASSIFICATION_TYPE":"U","REV_AT_EPOCH":"12027","NORAD_CAT_ID":"48334","APOAPSIS":"548.125","SEMIMAJOR_AXIS":"6925.331","INCLINATION":"53.0529","MEAN_MOTION_DOT":"0.00001904","ECCENTRICITY":"0.00013420","MEAN_MOTION_DDOT":"0.0000000000000","FILE":"3945666","TIME_SYSTEM":"UTC","OBJECT_TYPE":"PAYLOAD","ARG_OF_PERICENTER":"85.7756","PERIOD":"95.592"},{"FILE":"3945751","MEAN_MOTION_DDOT":"0.0000000000000","OBJECT_TYPE":"PAYLOAD","TIME_SYSTEM":"UTC","ARG_OF_PERICENTER":"89.3591","PERIOD":"95.592","BSTAR":"0.00000633640000","GP_ID":"234624553","CLASSIFICATION_TYPE":"U","NORAD_CAT_ID":"48335","REV_AT_EPOCH":"12025","APOAPSIS":"548.076","SEMIMAJOR_AXIS":"6925.326","ECCENTRICITY":"0.00012780","INCLINATION":"53.0545","MEAN_MOTION_DOT":"-0.00000187","COUNTRY_CODE":"US","ELEMENT_SET_NO":"999","OBJECT_ID":"2021-036BM","LAUNCH_DATE":"2021-04-29","RA_OF_ASC_NODE":"200.8332","EPHEMERIS_TYPE":"0","EPOCH":"2023-06-29T06:34:30.633024","TLE_LINE1":"1 48335U 21036BM  23180.27396566 -.00000187  00000-0  63364-5 0  9997","CENTER_NAME":"EARTH","REF_FRAME":"TEME","MEAN_ELEMENT_THEORY":"SGP4","RCS_SIZE":"LARGE","TLE_LINE2":"2 48335  53.0545 200.8332 0001278  89.3591 270.7544 15.06407507120252","SITE":"AFETR","OBJECT_NAME":"STARLINK-2441","PERIAPSIS":"546.305","MEAN_ANOMALY":"270.7544","MEAN_MOTION":"15.06407507","DECAY_DATE":null},{"LAUNCH_DATE":"2021-05-04","EPHEMERIS_TYPE":"0","RA_OF_ASC_NODE":"101.4031","OBJECT_ID":"2021-038A","ELEMENT_SET_NO":"999","COUNTRY_CODE":"US","REF_FRAME":"TEME","CENTER_NAME":"EARTH","TLE_LINE1":"1 48353U 21038A   23180.14679895  .00015099  00000-0  10298-2 0  9996","EPOCH":"2023-06-29T03:31:23.429280","PERIAPSIS":"546.426","MEAN_ANOMALY":"263.5694","OBJECT_NAME":"STARLINK-2613","SITE":"AFETR","TLE_LINE2":"2 48353  53.0540 101.4031 0001051  96.5414 263.5694 15.06419324119223","RCS_SIZE":"LARGE","MEAN_ELEMENT_THEORY":"SGP4","DECAY_DATE":null,"MEAN_MOTION":"15.06419324","MEAN_MOTION_DDOT":"0.0000000000000","FILE":"3945386","PERIOD":"95.591","ARG_OF_PERICENTER":"96.5414","TIME_SYSTEM":"UTC","OBJECT_TYPE":"PAYLOAD","CLASSIFICATION_TYPE":"U","GP_ID":"234616308","BSTAR":"0.00102980000000","MEAN_MOTION_DOT":"0.00015099","INCLINATION":"53.0540","ECCENTRICITY":"0.00010510","SEMIMAJOR_AXIS":"6925.289","APOAPSIS":"547.882","REV_AT_EPOCH":"11922","NORAD_CAT_ID":"48353"},{"MEAN_MOTION":"15.06429686","DECAY_DATE":null,"MEAN_ELEMENT_THEORY":"SGP4","RCS_SIZE":"LARGE","TLE_LINE2":"2 48354  53.0539 101.4217 0001505  77.8543 282.2615 15.06429686119220","SITE":"AFETR","OBJECT_NAME":"STARLINK-2674","MEAN_ANOMALY":"282.2615","PERIAPSIS":"546.080","EPOCH":"2023-06-29T03:26:05.596512","TLE_LINE1":"1 48354U 21038B   23180.14312033  .00015869  00000-0  10810-2 0  9990","CENTER_NAME":"EARTH","REF_FRAME":"TEME","COUNTRY_CODE":"US","OBJECT_ID":"2021-038B","ELEMENT_SET_NO":"999","RA_OF_ASC_NODE":"101.4217","LAUNCH_DATE":"2021-05-04","EPHEMERIS_TYPE":"0","NORAD_CAT_ID":"48354","REV_AT_EPOCH":"11922","APOAPSIS":"548.165","SEMIMAJOR_AXIS":"6925.258","ECCENTRICITY":"0.00015050","MEAN_MOTION_DOT":"0.00015869","INCLINATION":"53.0539","BSTAR":"0.00108100000000","GP_ID":"234616404","CLASSIFICATION_TYPE":"U","TIME_SYSTEM":"UTC","OBJECT_TYPE":"PAYLOAD","ARG_OF_PERICENTER":"77.8543","PERIOD":"95.590","FILE":"3945392","MEAN_MOTION_DDOT":"0.0000000000000"}];
